0 FENGYUN 1C DEB
1 30103U 99025RG  13281.77144299  .00000710  00000-0  36288-3 0  8245
2 30103 099.1289 026.8405 0071573 149.3490 336.7402 14.17593346348378
0 FENGYUN 1C DEB
1 30103U 99025RG  13282.82810663  .00000654  00000-0  33599-3 0  8257
2 30103 099.1291 027.9259 0071568 146.3987 329.2064 14.17597414348520
0 FENGYUN 1C DEB
1 30103U 99025RG  13283.88861188  .00000862  00000-0  43580-3 0  8265
2 30103 099.1293 029.0153 0071577 143.4141 341.3154 14.17598853348677
0 FENGYUN 1C DEB
1 30103U 99025RG  13285.21961126  .00000731  00000-0  37277-3 0  8279
2 30103 099.1295 030.3825 0071579 139.7115 293.8130 14.17600850348868
0 FENGYUN 1C DEB
1 30103U 99025RG  13286.78795497  .00000844  00000-0  42707-3 0  8288
2 30103 099.1298 031.9937 0071587 135.3323 017.5791 14.17603292349086
0 FENGYUN 1C DEB
1 30103U 99025RG  13287.83914856  .00000902  00000-0  45469-3 0  8291
2 30103 099.1299 033.0736 0071600 132.3814 342.1807 14.17606565349233
0 FENGYUN 1C DEB
1 30103U 99025RG  13288.89847416  .00000944  00000-0  47502-3 0  8303
2 30103 099.1300 034.1619 0071546 129.4391 348.2668 14.17609796349381
0 FENGYUN 1C DEB
1 30103U 99025RG  13290.29207226  .00000969  00000-0  48713-3 0  8312
2 30103 099.1299 035.5937 0071526 125.5390 260.3028 14.17612074349589
0 FENGYUN 1C DEB
1 30103U 99025RG  13291.86226395  .00000990  00000-0  49689-3 0  8322
2 30103 099.1298 037.2070 0071481 121.1480 353.5727 14.17614856349803
0 FENGYUN 1C DEB
1 30103U 99025RG  13293.26187267  .00001039  00000-0  52075-3 0  8331
2 30103 099.1297 038.6450 0071457 117.2346 296.3050 14.17618340350008
0 FENGYUN 1C DEB
1 30103U 99025RG  13294.82825135  .00001030  00000-0  51640-3 0  8346
2 30103 099.1296 040.2542 0071458 112.8488 010.1533 14.17622262350227
